0 BEIDOU M6
1 38775U 12050B   13281.24948561  .00000017  00000-0  00000+0 0  3410
2 38775 054.9715 218.8575 0017451 213.5933 052.4342 01.86233234  7349
0 BEIDOU M6
1 38775U 12050B   13282.33010145  .00000012  00000-0  00000+0 0  3425
2 38775 054.9712 218.8208 0017429 213.5693 056.9681 01.86233232  7362
0 BEIDOU M6
1 38775U 12050B   13283.34475831  .00000003  00000-0  00000+0 0  3435
2 38775 054.9709 218.7865 0017413 213.5085 017.3159 01.86233235  7380
0 BEIDOU M6
1 38775U 12050B   13286.18958537 -.00000038  00000-0  00000+0 0  3461
2 38775 054.9700 218.6903 0017314 213.2753 124.8912 01.86233228  7431
0 BEIDOU M6
1 38775U 12050B   13287.33984193 -.00000050  00000-0  00000+0 0  3471
2 38775 054.9697 218.6513 0017230 213.0860 176.2811 01.86233226  7467
0 BEIDOU M6
1 38775U 12050B   13288.59559497 -.00000055  00000-0  00000+0 0  3481
2 38775 054.9692 218.6087 0017194 213.0172 298.2809 01.86233206  7485
0 BEIDOU M6
1 38775U 12050B   13289.75068458 -.00000051  00000-0  00000+0 0  3499
2 38775 054.9688 218.5696 0017181 212.9661 352.7725 01.86233191  7501
0 BEIDOU M6
1 38775U 12050B   13291.17803588 -.00000039  00000-0  00000+0 0  3507
2 38775 054.9684 218.5213 0017138 212.9341 229.7852 01.86233170  7533
0 BEIDOU M6
1 38775U 12050B   13292.43955848 -.00000026  00000-0  00000+0 0  3511
2 38775 054.9680 218.4786 0017113 212.8872 355.6318 01.86233156  7556
0 BEIDOU M6
1 38775U 12050B   13293.84518742 -.00000016  00000-0  00000+0 0  3525
2 38775 054.9675 218.4309 0017090 212.7950 218.1411 01.86233141  7585
0 BEIDOU M6
1 38775U 12050B   13294.85661185 -.00000014  00000-0  00000+0 0  3536
2 38775 054.9672 218.3965 0017051 212.7346 176.3206 01.86233133  7606
